NORAD_CAT_ID,OBJECT_NAME,OBJECT_TYPE,EPOCH,MEAN_MOTION,ECCENTRICITY,INCLINATION,RA_OF_ASC_NODE,ARG_OF_PERICENTER,MEAN_ANOMALY,BSTAR,MEAN_MOTION_DOT,MEAN_MOTION_DDOT,TLE_LINE0,TLE_LINE1,TLE_LINE2,SEMIMAJOR_AXIS,PERIOD,APOGEE,PERIGEE,DECAYED
53423.0,STARLINK-4539,PAYLOAD,2024-06-21 01:06:47,15.08844266,0.0001284,53.2179,47.241,96.6332,263.4806,5.4609e-05,5.81e-06,0.0,0 STARLINK-4539,1 53423U 22097AM  24173.04638776  .00000581  00000-0  54609-4 0  9997,2 53423  53.2179  47.2410 0001284  96.6332 263.4806 15.08844266104028,6917.867,95.437,540.621,538.844,0.0
53423.0,STARLINK-4539,PAYLOAD,2024-06-21 21:46:48,15.08841696,0.0001234,53.2175,43.376,96.0473,264.066,7.6081e-05,9.23e-06,0.0,0 STARLINK-4539,1 53423U 22097AM  24173.90750988  .00000923  00000-0  76081-4 0  9990,2 53423  53.2175  43.3760 0001234  96.0473 264.0660 15.08841696104157,6917.875,95.437,540.594,538.887,0.0
53423.0,STARLINK-4539,PAYLOAD,2024-06-22 20:02:12,15.08840298,0.0001308,53.2175,39.2122,91.8212,268.293,0.00014275,1.985e-05,0.0,0 STARLINK-4539,1 53423U 22097AM  24174.83487052  .00001985  00000-0  14275-3 0  9997,2 53423  53.2175  39.2122 0001308  91.8212 268.2930 15.08840298103836,6917.879,95.438,540.649,538.84,0.0
53423.0,STARLINK-4539,PAYLOAD,2024-06-22 21:37:35,15.08843986,0.0001286,53.2177,38.9146,87.9501,272.1638,0.00010374,1.364e-05,0.0,0 STARLINK-4539,1 53423U 22097AM  24174.90110892  .00001364  00000-0  10374-3 0  9997,2 53423  53.2177  38.9146 0001286  87.9501 272.1638 15.08843986104301,6917.868,95.437,540.623,538.844,0.0
53423.0,STARLINK-4539,PAYLOAD,2024-06-23 15:06:50,15.08841616,0.0001407,53.218,35.6432,104.9437,255.1711,9.8128e-05,1.274e-05,0.0,0 STARLINK-4539,1 53423U 22097AM  24175.62974915  .00001274  00000-0  98128-4 0  9995,2 53423  53.2180  35.6432 0001407 104.9437 255.1711 15.08841616104413,6917.875,95.437,540.714,538.767,0.0
53423.0,STARLINK-4539,PAYLOAD,2024-06-23 19:52:59,15.08840983,0.0001415,53.2181,34.7511,106.0745,254.0403,8.2834e-05,1.031e-05,0.0,0 STARLINK-4539,1 53423U 22097AM  24175.82846944  .00001031  00000-0  82834-4 0  9995,2 53423  53.2181  34.7511 0001415 106.0745 254.0403 15.08840983104441,6917.877,95.437,540.721,538.764,0.0
53423.0,STARLINK-4539,PAYLOAD,2024-06-24 00:39:09,15.08841214,0.0001412,53.2182,33.8591,105.5786,254.5362,7.7949e-05,9.53e-06,0.0,0 STARLINK-4539,1 53423U 22097AM  24176.02718926  .00000953  00000-0  77949-4 0  9999,2 53423  53.2182  33.8591 0001412 105.5786 254.5362 15.08841214104016,6917.877,95.437,540.718,538.765,0.0
53423.0,STARLINK-4539,PAYLOAD,2024-06-24 19:43:47,15.08837404,0.000154,53.2176,30.2899,119.0607,241.054,2.9049e-05,1.74e-06,0.0,0 STARLINK-4539,1 53423U 22097AM  24176.82207300  .00000174  00000-0  29049-4 0  9999,2 53423  53.2176  30.2899 0001540 119.0607 241.0540 15.08837404104593,6917.888,95.438,540.819,538.688,0.0
53423.0,STARLINK-4539,PAYLOAD,2024-06-25 19:34:34,15.08836894,0.0001444,53.2178,25.8292,110.1182,249.9966,5.5632e-05,5.97e-06,0.0,0 STARLINK-4539,1 53423U 22097AM  24177.81567524  .00000597  00000-0  55632-4 0  9992,2 53423  53.2178  25.8292 0001444 110.1182 249.9966 15.08836894104743,6917.89,95.438,540.754,538.756,0.0
53423.0,STARLINK-4539,PAYLOAD,2024-06-27 20:51:31,15.08840802,0.0001223,53.2179,16.6124,86.1286,273.9846,0.0001173,1.58e-05,0.0,0 STARLINK-4539,1 53423U 22097AM  24179.86911938  .00001580  00000-0  11730-3 0  9994,2 53423  53.2179  16.6124 0001223  86.1286 273.9846 15.08840802104599,6917.878,95.438,540.589,538.897,0.0
53423.0,STARLINK-4539,PAYLOAD,2024-06-28 19:06:55,15.08851582,0.0001238,53.217,12.4496,82.4394,277.6739,0.00019467,2.813e-05,0.0,0 STARLINK-4539,1 53423U 22097AM  24180.79647437  .00002813  00000-0  19467-3 0  9993,2 53423  53.2170  12.4496 0001238  82.4394 277.6739 15.08851582105197,6917.845,95.437,540.566,538.854,0.0
53423.0,STARLINK-4539,PAYLOAD,2024-06-29 12:36:10,15.08847869,0.0002956,53.2176,9.1778,92.7632,267.3698,0.00010391,1.366e-05,0.0,0 STARLINK-4539,1 53423U 22097AM  24181.52511698  .00001366  00000-0  10391-3 0  9993,2 53423  53.2176   9.1778 0002956  92.7632 267.3698 15.08847869104840,6917.856,95.437,541.766,537.676,0.0
53423.0,STARLINK-4539,PAYLOAD,2024-06-29 18:57:43,15.08823597,0.0001503,53.2172,7.9881,109.1794,250.9361,-0.00023491,-4.023e-05,0.0,0 STARLINK-4539,1 53423U 22097AM  24181.79008632 -.00004023  00000-0 -23491-3 0  9991,2 53423  53.2172   7.9881 0001503 109.1794 250.9361 15.08823597104887,6917.931,95.439,540.835,538.756,0.0
53423.0,STARLINK-4539,PAYLOAD,2024-06-30 18:48:29,15.08854654,0.0001216,53.2183,3.5287,110.2082,249.904,0.00020682,3.006e-05,0.0,0 STARLINK-4539,1 53423U 22097AM  24182.78367528  .00003006  00000-0  20682-3 0  9990,2 53423  53.2183   3.5287 0001216 110.2082 249.9040 15.08854654105033,6917.836,95.437,540.542,538.859,0.0
53423.0,STARLINK-4539,PAYLOAD,2024-07-01 18:39:17,15.08835581,9.56e-05,53.2165,359.0701,104.5912,255.5186,0.00032324,4.86e-05,0.0,0 STARLINK-4539,1 53423U 22097AM  24183.77728704  .00004860  00000-0  32324-3 0  9992,2 53423  53.2165 359.0701 0000956 104.5912 255.5186 15.08835581105189,6917.894,95.438,540.42,539.098,0.0
53423.0,STARLINK-4539,PAYLOAD,2024-07-01 21:50:03,15.08838467,8.56e-05,53.217,358.4746,97.3593,262.7496,0.00027223,4.047e-05,0.0,0 STARLINK-4539,1 53423U 22097AM  24183.90976477  .00004047  00000-0  27223-3 0  9998,2 53423  53.2170 358.4746 0000856  97.3593 262.7496 15.08838467105663,6917.885,95.438,540.342,539.158,0.0
53423.0,STARLINK-4539,PAYLOAD,2024-07-02 04:11:35,15.08844768,9.64e-05,53.2175,357.2873,101.5284,258.5816,0.00025637,3.795e-05,0.0,0 STARLINK-4539,1 53423U 22097AM  24184.17472093  .00003795  00000-0  25637-3 0  9999,2 53423  53.2175 357.2873 0000964 101.5284 258.5816 15.08844768105245,6917.866,95.437,540.398,539.064,0.0
53423.0,STARLINK-4539,PAYLOAD,2024-07-02 12:08:31,15.08853146,0.0002089,53.2174,355.7984,83.2164,276.9066,3.9362e-05,3.38e-06,0.0,0 STARLINK-4539,1 53423U 22097AM  24184.50591740  .00000338  00000-0  39362-4 0  9998,2 53423  53.2174 355.7984 0002089  83.2164 276.9066 15.08853146105750,6917.84,95.437,541.15,538.26,0.0
53423.0,STARLINK-4539,PAYLOAD,2024-07-02 18:30:04,15.08839737,0.0001138,53.2185,354.6135,116.3341,243.7768,-0.0001275,-2.316e-05,0.0,0 STARLINK-4539,1 53423U 22097AM  24184.77088201 -.00002316  00000-0 -12750-3 0  9991,2 53423  53.2185 354.6135 0001138 116.3341 243.7768 15.08839737105332,6917.881,95.438,540.533,538.959,0.0
53423.0,STARLINK-4539,PAYLOAD,2024-07-03 18:20:51,15.08837229,9.52e-05,53.2181,350.1505,99.0863,261.0237,6.8422e-05,8.01e-06,0.0,0 STARLINK-4539,1 53423U 22097AM  24185.76448561  .00000801  00000-0  68422-4 0  9993,2 53423  53.2181 350.1505 0000952  99.0863 261.0237 15.08837229105944,6917.889,95.438,540.412,539.095,0.0
53423.0,STARLINK-4539,PAYLOAD,2024-07-04 03:53:09,15.08850633,8.01e-05,53.2169,348.3631,68.2832,291.8246,0.00031249,4.69e-05,0.0,0 STARLINK-4539,1 53423U 22097AM  24186.16192049  .00004690  00000-0  31249-3 0  9991,2 53423  53.2169 348.3631 0000801  68.2832 291.8246 15.08850633105547,6917.848,95.437,540.267,539.159,0.0
53423.0,STARLINK-4539,PAYLOAD,2024-07-04 10:14:43,15.08839174,0.000173,53.2163,347.174,74.7738,285.3445,3.5253e-05,2.73e-06,0.0,0 STARLINK-4539,1 53423U 22097AM  24186.42688773  .00000273  00000-0  35253-4 0  9997,2 53423  53.2163 347.1740 0001730  74.7738 285.3445 15.08839174105588,6917.883,95.438,540.945,538.551,0.0
53423.0,STARLINK-4539,PAYLOAD,2024-07-04 15:00:52,15.08839662,0.0001578,53.2165,346.2823,73.4403,286.6762,0.00017529,2.503e-05,0.0,0 STARLINK-4539,1 53423U 22097AM  24186.62560807  .00002503  00000-0  17529-3 0  9999,2 53423  53.2165 346.2823 0001578  73.4403 286.6762 15.08839662106070,6917.881,95.438,540.838,538.655,0.0
53423.0,STARLINK-4539,PAYLOAD,2024-07-04 18:11:38,15.08840572,0.0001023,53.2158,345.6881,87.2881,272.8229,0.00014915,2.087e-05,0.0,0 STARLINK-4539,1 53423U 22097AM  24186.75808588  .00002087  00000-0  14915-3 0  9997,2 53423  53.2158 345.6881 0001023  87.2881 272.8229 15.08840572106096,6917.879,95.438,540.451,539.036,0.0
53423.0,STARLINK-4539,PAYLOAD,2024-07-05 03:43:56,15.08850588,9.99e-05,53.2167,343.9044,82.9731,277.1374,0.00026198,3.885e-05,0.0,0 STARLINK-4539,1 53423U 22097AM  24187.15552057  .00003885  00000-0  26198-3 0  9992,2 53423  53.2167 343.9044 0000999  82.9731 277.1374 15.08850588105697,6917.848,95.437,540.404,539.022,0.0
53423.0,STARLINK-4539,PAYLOAD,2024-07-05 10:05:30,15.08833568,8.67e-05,53.2165,342.7131,83.481,276.6281,-9.4801e-05,-1.796e-05,0.0,0 STARLINK-4539,1 53423U 22097AM  24187.42048637 -.00001796  00000-0 -94801-4 0  9994,2 53423  53.2165 342.7131 0000867  83.4810 276.6281 15.08833568105732,6917.9,95.438,540.365,539.165,0.0
53423.0,STARLINK-4539,PAYLOAD,2024-07-05 18:02:25,15.08841805,8.37e-05,53.2162,341.2282,80.7972,279.3114,9.9982e-05,1.304e-05,0.0,0 STARLINK-4539,1 53423U 22097AM  24187.75168410  .00001304  00000-0  99982-4 0  9990,2 53423  53.2162 341.2282 0000837  80.7972 279.3114 15.08841805106241,6917.875,95.437,540.319,539.161,0.0
53423.0,STARLINK-4539,PAYLOAD,2024-07-06 03:34:44,15.08848965,8.37e-05,53.2166,339.4433,82.9126,277.1961,0.00028132,4.193e-05,0.0,0 STARLINK-4539,1 53423U 22097AM  24188.14912156  .00004193  00000-0  28132-3 0  9995,2 53423  53.2166 339.4433 0000837  82.9126 277.1961 15.08848965105842,6917.853,95.437,540.297,539.139,0.0
53423.0,STARLINK-4539,PAYLOAD,2024-07-06 09:56:17,15.08827801,0.0001495,53.2165,338.2547,83.8728,276.2435,-0.00015004,-2.674e-05,0.0,0 STARLINK-4539,1 53423U 22097AM  24188.41409079 -.00002674  00000-0 -15004-3 0  9998,2 53423  53.2165 338.2547 0001495  83.8728 276.2435 15.08827801105889,6917.918,95.438,540.817,538.748,0.0
53423.0,STARLINK-4539,PAYLOAD,2024-07-06 14:42:27,15.08824947,0.0001253,53.2167,337.3628,83.471,276.6425,-0.00010549,-1.966e-05,0.0,0 STARLINK-4539,1 53423U 22097AM  24188.61281329 -.00001966  00000-0 -10549-3 0  9998,2 53423  53.2167 337.3628 0001253  83.4710 276.6425 15.08824947106376,6917.926,95.439,540.658,538.925,0.0
